{"type":"FeatureCollection","features":[{"type":"Feature","geometry":{"type":"MultiPoint","coordinates":[]},"id":"0","properties":{"feature":"Delta_MNDWI","importance_pct":23.257061952600637}},{"type":"Feature","geometry":{"type":"MultiPoint","coordinates":[]},"id":"1","properties":{"feature":"Delta_NDWI","importance_pct":19.335687927387397}},{"type":"Feature","geometry":{"type":"MultiPoint","coordinates":[]},"id":"2","properties":{"feature":"Delta_NDVI","importance_pct":23.42368895071108}},{"type":"Feature","geometry":{"type":"MultiPoint","coordinates":[]},"id":"3","properties":{"feature":"Delta_NDBI","importance_pct":13.487130026590272}},{"type":"Feature","geometry":{"type":"MultiPoint","coordinates":[]},"id":"4","properties":{"feature":"Delta_BSI","importance_pct":20.496431142710616}}]}