{"type":"FeatureCollection","features":[{"type":"Feature","geometry":{"type":"MultiPoint","coordinates":[]},"id":"0","properties":{"area_km2":338.8266093748847,"area_m2":3.388266093748847E8,"class_id":0,"class_name":"No Change","color":"#CCCCCC"}},{"type":"Feature","geometry":{"type":"MultiPoint","coordinates":[]},"id":"1","properties":{"area_km2":1.3338019612426757,"area_m2":1333801.9612426758,"class_id":1,"class_name":"Newly Inundated","color":"#0000FF"}},{"type":"Feature","geometry":{"type":"MultiPoint","coordinates":[]},"id":"2","properties":{"area_km2":18.083996969041763,"area_m2":1.8083996969041765E7,"class_id":2,"class_name":"Vegetation Loss","color":"#00AA00"}},{"type":"Feature","geometry":{"type":"MultiPoint","coordinates":[]},"id":"3","properties":{"area_km2":12.037125043830185,"area_m2":1.2037125043830186E7,"class_id":3,"class_name":"Built-up Alteration","color":"#FF0000"}}]}