{"type":"FeatureCollection","features":[{"type":"Feature","geometry":{"type":"MultiPoint","coordinates":[]},"id":"0","properties":{"agri_to_bare_soil_km2":0.0,"agri_to_water_km2":0.3483464777750652,"baseline_km2":31.454923974114628,"built_to_water_km2":0.0,"flood_km2":0.3958845552344231,"k_clusters":5,"lulc_change_km2":232.49852548149664,"lulc_new_water_km2":0.3483464777750652,"ml_agreement_pct":0.09833236582004849,"ml_km2":5.10157383033591,"ml_method":"Unsupervised K-means (delta indices only)","overlap_km2":0.03093037091064453,"post_immediate_end":"2026-09-05","post_immediate_start":"2026-08-20","post_persist_end":"2026-09-05","post_persist_start":"2026-08-20","pre_end":"2026-08-06","pre_start":"2026-07-06","study_area_km2":370.863428852343,"study_area_m2":3.70863428852343E8,"veg_to_bare_soil_km2":0.0,"veg_to_water_km2":0.0}}]}