{"type":"FeatureCollection","features":[{"type":"Feature","geometry":{"geodesic":false,"type":"Point","coordinates":[84.70686429487132,27.806855546513525]},"id":"0","properties":{"class_id":1,"hotspot_score":0.11570247933884298,"lat":27.806855546513525,"lng":84.70686429487132,"name":"Newly Inundated","severity":"low"}},{"type":"Feature","geometry":{"geodesic":false,"type":"Point","coordinates":[84.62682440305626,27.875576665748667]},"id":"1","properties":{"class_id":1,"hotspot_score":0.30578512396694213,"lat":27.875576665748667,"lng":84.62682440305626,"name":"Newly Inundated","severity":"low"}},{"type":"Feature","geometry":{"geodesic":false,"type":"Point","coordinates":[84.43036285041933,27.792572333496025]},"id":"2","properties":{"class_id":1,"hotspot_score":0.06611570247933884,"lat":27.792572333496025,"lng":84.43036285041933,"name":"Newly Inundated","severity":"low"}},{"type":"Feature","geometry":{"geodesic":false,"type":"Point","coordinates":[84.59071212863466,27.879619084527206]},"id":"3","properties":{"class_id":1,"hotspot_score":0.08264462809917356,"lat":27.879619084527206,"lng":84.59071212863466,"name":"Newly Inundated","severity":"low"}},{"type":"Feature","geometry":{"geodesic":false,"type":"Point","coordinates":[84.43036285041933,27.79230283891079]},"id":"4","properties":{"class_id":1,"hotspot_score":0.08264462809917356,"lat":27.79230283891079,"lng":84.43036285041933,"name":"Newly Inundated","severity":"low"}},{"type":"Feature","geometry":{"geodesic":false,"type":"Point","coordinates":[84.43278830168646,27.81224543821824]},"id":"5","properties":{"class_id":1,"hotspot_score":0.19008264462809918,"lat":27.81224543821824,"lng":84.43278830168646,"name":"Newly Inundated","severity":"low"}},{"type":"Feature","geometry":{"geodesic":false,"type":"Point","coordinates":[84.72384245374117,27.801196160223572]},"id":"6","properties":{"class_id":1,"hotspot_score":0.12396694214876033,"lat":27.801196160223572,"lng":84.72384245374117,"name":"Newly Inundated","severity":"low"}},{"type":"Feature","geometry":{"geodesic":false,"type":"Point","coordinates":[84.50770779638202,27.81736583533772]},"id":"7","properties":{"class_id":1,"hotspot_score":0.09090909090909091,"lat":27.81736583533772,"lng":84.50770779638202,"name":"Newly Inundated","severity":"low"}},{"type":"Feature","geometry":{"geodesic":false,"type":"Point","coordinates":[84.87314245396183,27.80469958983164]},"id":"8","properties":{"class_id":1,"hotspot_score":0.05785123966942149,"lat":27.80469958983164,"lng":84.87314245396183,"name":"Newly Inundated","severity":"low"}},{"type":"Feature","geometry":{"geodesic":false,"type":"Point","coordinates":[84.66320617206311,27.82733713499145]},"id":"9","properties":{"class_id":1,"hotspot_score":0.09090909090909091,"lat":27.82733713499145,"lng":84.66320617206311,"name":"Newly Inundated","severity":"low"}},{"type":"Feature","geometry":{"geodesic":false,"type":"Point","coordinates":[84.46189371689192,27.77343821794428]},"id":"10","properties":{"class_id":1,"hotspot_score":0.024793388429752067,"lat":27.77343821794428,"lng":84.46189371689192,"name":"Newly Inundated","severity":"low"}},{"type":"Feature","geometry":{"geodesic":false,"type":"Point","coordinates":[84.99037259853944,27.80389110607593]},"id":"11","properties":{"class_id":1,"hotspot_score":0.08264462809917356,"lat":27.80389110607593,"lng":84.99037259853944,"name":"Newly Inundated","severity":"low"}},{"type":"Feature","geometry":{"geodesic":false,"type":"Point","coordinates":[84.57777638854334,27.86560536609494]},"id":"12","properties":{"class_id":1,"hotspot_score":0.09090909090909091,"lat":27.86560536609494,"lng":84.57777638854334,"name":"Newly Inundated","severity":"low"}},{"type":"Feature","geometry":{"geodesic":false,"type":"Point","coordinates":[84.45704281435768,27.819791286604847]},"id":"13","properties":{"class_id":1,"hotspot_score":0.04132231404958678,"lat":27.819791286604847,"lng":84.45704281435768,"name":"Newly Inundated","severity":"low"}},{"type":"Feature","geometry":{"geodesic":false,"type":"Point","coordinates":[84.6338312622724,27.868030817362065]},"id":"14","properties":{"class_id":1,"hotspot_score":0.25619834710743805,"lat":27.868030817362065,"lng":84.6338312622724,"name":"Newly Inundated","severity":"low"}},{"type":"Feature","geometry":{"geodesic":false,"type":"Point","coordinates":[84.52091303105857,27.824372694553855]},"id":"15","properties":{"class_id":1,"hotspot_score":0.09917355371900827,"lat":27.824372694553855,"lng":84.52091303105857,"name":"Newly Inundated","severity":"low"}},{"type":"Feature","geometry":{"geodesic":false,"type":"Point","coordinates":[84.73650869924727,27.800926665638336]},"id":"16","properties":{"class_id":1,"hotspot_score":0.04132231404958678,"lat":27.800926665638336,"lng":84.73650869924727,"name":"Newly Inundated","severity":"low"}},{"type":"Feature","geometry":{"geodesic":false,"type":"Point","coordinates":[84.975011407181,27.801735149394045]},"id":"17","properties":{"class_id":1,"hotspot_score":0.08264462809917356,"lat":27.801735149394045,"lng":84.975011407181,"name":"Newly Inundated","severity":"low"}},{"type":"Feature","geometry":{"geodesic":false,"type":"Point","coordinates":[84.43467476378311,27.781523055501353]},"id":"18","properties":{"class_id":1,"hotspot_score":0.2231404958677686,"lat":27.781523055501353,"lng":84.43467476378311,"name":"Newly Inundated","severity":"low"}},{"type":"Feature","geometry":{"geodesic":false,"type":"Point","coordinates":[84.5775068939581,27.87099525779966]},"id":"19","properties":{"class_id":1,"hotspot_score":0.10743801652892562,"lat":27.87099525779966,"lng":84.5775068939581,"name":"Newly Inundated","severity":"low"}},{"type":"Feature","geometry":{"geodesic":false,"type":"Point","coordinates":[84.61793108174348,27.87934958994197]},"id":"20","properties":{"class_id":1,"hotspot_score":0.1487603305785124,"lat":27.87934958994197,"lng":84.61793108174348,"name":"Newly Inundated","severity":"low"}},{"type":"Feature","geometry":{"geodesic":false,"type":"Point","coordinates":[84.66051122621074,27.84943569098079]},"id":"21","properties":{"class_id":1,"hotspot_score":0.03305785123966942,"lat":27.84943569098079,"lng":84.66051122621074,"name":"Newly Inundated","severity":"low"}},{"type":"Feature","geometry":{"geodesic":false,"type":"Point","coordinates":[84.65754678577315,27.85132215307744]},"id":"22","properties":{"class_id":1,"hotspot_score":0.06611570247933884,"lat":27.85132215307744,"lng":84.65754678577315,"name":"Newly Inundated","severity":"low"}},{"type":"Feature","geometry":{"geodesic":false,"type":"Point","coordinates":[84.63356176768717,27.86883930111777]},"id":"23","properties":{"class_id":1,"hotspot_score":0.25619834710743805,"lat":27.86883930111777,"lng":84.63356176768717,"name":"Newly Inundated","severity":"low"}},{"type":"Feature","geometry":{"geodesic":false,"type":"Point","coordinates":[84.65727729118792,27.851861142247913]},"id":"24","properties":{"class_id":1,"hotspot_score":0.06611570247933884,"lat":27.851861142247913,"lng":84.65727729118792,"name":"Newly Inundated","severity":"low"}},{"type":"Feature","geometry":{"geodesic":false,"type":"Point","coordinates":[84.55729480006542,27.840542369668007]},"id":"25","properties":{"class_id":1,"hotspot_score":0.06611570247933884,"lat":27.840542369668007,"lng":84.55729480006542,"name":"Newly Inundated","severity":"low"}},{"type":"Feature","geometry":{"geodesic":false,"type":"Point","coordinates":[84.43817819339117,27.815748867826308]},"id":"26","properties":{"class_id":1,"hotspot_score":0.06611570247933884,"lat":27.815748867826308,"lng":84.43817819339117,"name":"Newly Inundated","severity":"low"}},{"type":"Feature","geometry":{"geodesic":false,"type":"Point","coordinates":[84.44033415007306,27.81709634075249]},"id":"27","properties":{"class_id":1,"hotspot_score":0.1487603305785124,"lat":27.81709634075249,"lng":84.44033415007306,"name":"Newly Inundated","severity":"low"}},{"type":"Feature","geometry":{"geodesic":false,"type":"Point","coordinates":[84.54220310329221,27.833266015866638]},"id":"28","properties":{"class_id":1,"hotspot_score":0.06611570247933884,"lat":27.833266015866638,"lng":84.54220310329221,"name":"Newly Inundated","severity":"low"}},{"type":"Feature","geometry":{"geodesic":false,"type":"Point","coordinates":[84.43305779627168,27.814401394900127]},"id":"29","properties":{"class_id":1,"hotspot_score":0.1487603305785124,"lat":27.814401394900127,"lng":84.43305779627168,"name":"Newly Inundated","severity":"low"}},{"type":"Feature","geometry":{"geodesic":false,"type":"Point","coordinates":[84.93270075729896,27.799579192712155]},"id":"30","properties":{"class_id":2,"hotspot_score":0.8347107438016529,"lat":27.799579192712155,"lng":84.93270075729896,"name":"Vegetation Loss","severity":"low"}},{"type":"Feature","geometry":{"geodesic":false,"type":"Point","coordinates":[85.04507999934232,27.849705185566027]},"id":"31","properties":{"class_id":2,"hotspot_score":0.7272727272727273,"lat":27.849705185566027,"lng":85.04507999934232,"name":"Vegetation Loss","severity":"low"}},{"type":"Feature","geometry":{"geodesic":false,"type":"Point","coordinates":[84.43332729085692,27.739212405619323]},"id":"32","properties":{"class_id":2,"hotspot_score":0.3553719008264463,"lat":27.739212405619323,"lng":84.43332729085692,"name":"Vegetation Loss","severity":"low"}},{"type":"Feature","geometry":{"geodesic":false,"type":"Point","coordinates":[84.42766790456697,27.749453199858287]},"id":"33","properties":{"class_id":2,"hotspot_score":0.371900826446281,"lat":27.749453199858287,"lng":84.42766790456697,"name":"Vegetation Loss","severity":"low"}},{"type":"Feature","geometry":{"geodesic":false,"type":"Point","coordinates":[84.89470202078071,27.816557351582016]},"id":"34","properties":{"class_id":2,"hotspot_score":0.6776859504132231,"lat":27.816557351582016,"lng":84.89470202078071,"name":"Vegetation Loss","severity":"low"}},{"type":"Feature","geometry":{"geodesic":false,"type":"Point","coordinates":[84.89604949370688,27.79796222520074]},"id":"35","properties":{"class_id":2,"hotspot_score":0.6776859504132231,"lat":27.79796222520074,"lng":84.89604949370688,"name":"Vegetation Loss","severity":"low"}},{"type":"Feature","geometry":{"geodesic":false,"type":"Point","coordinates":[84.91437512550293,27.808742008610174]},"id":"36","properties":{"class_id":2,"hotspot_score":1.0,"lat":27.808742008610174,"lng":84.91437512550293,"name":"Vegetation Loss","severity":"low"}},{"type":"Feature","geometry":{"geodesic":false,"type":"Point","coordinates":[84.87934082942226,27.801196160223572]},"id":"37","properties":{"class_id":2,"hotspot_score":1.0,"lat":27.801196160223572,"lng":84.87934082942226,"name":"Vegetation Loss","severity":"low"}},{"type":"Feature","geometry":{"geodesic":false,"type":"Point","coordinates":[84.8998224179002,27.802274138564513]},"id":"38","properties":{"class_id":2,"hotspot_score":0.9834710743801653,"lat":27.802274138564513,"lng":84.8998224179002,"name":"Vegetation Loss","severity":"low"}},{"type":"Feature","geometry":{"geodesic":false,"type":"Point","coordinates":[84.90413433126396,27.813323416559186]},"id":"39","properties":{"class_id":2,"hotspot_score":1.0,"lat":27.813323416559186,"lng":84.90413433126396,"name":"Vegetation Loss","severity":"low"}},{"type":"Feature","geometry":{"geodesic":false,"type":"Point","coordinates":[85.12188595613453,27.867222333606357]},"id":"40","properties":{"class_id":2,"hotspot_score":0.859504132231405,"lat":27.867222333606357,"lng":85.12188595613453,"name":"Vegetation Loss","severity":"low"}},{"type":"Feature","geometry":{"geodesic":false,"type":"Point","coordinates":[84.93728216524798,27.80847251402494]},"id":"41","properties":{"class_id":2,"hotspot_score":0.8925619834710744,"lat":27.80847251402494,"lng":84.93728216524798,"name":"Vegetation Loss","severity":"low"}},{"type":"Feature","geometry":{"geodesic":false,"type":"Point","coordinates":[84.47429046781278,27.748914210687815]},"id":"42","properties":{"class_id":2,"hotspot_score":0.23140495867768596,"lat":27.748914210687815,"lng":84.47429046781278,"name":"Vegetation Loss","severity":"low"}},{"type":"Feature","geometry":{"geodesic":false,"type":"Point","coordinates":[84.90952422296868,27.805508073587344]},"id":"43","properties":{"class_id":2,"hotspot_score":0.2644628099173554,"lat":27.805508073587344,"lng":84.90952422296868,"name":"Vegetation Loss","severity":"low"}},{"type":"Feature","geometry":{"geodesic":false,"type":"Point","coordinates":[84.88122729151891,27.800387676467864]},"id":"44","properties":{"class_id":2,"hotspot_score":0.9669421487603306,"lat":27.800387676467864,"lng":84.88122729151891,"name":"Vegetation Loss","severity":"low"}},{"type":"Feature","geometry":{"geodesic":false,"type":"Point","coordinates":[85.0329527430067,27.8329965212814]},"id":"45","properties":{"class_id":2,"hotspot_score":0.371900826446281,"lat":27.8329965212814,"lng":85.0329527430067,"name":"Vegetation Loss","severity":"low"}},{"type":"Feature","geometry":{"geodesic":false,"type":"Point","coordinates":[84.89847494497401,27.803352116905458]},"id":"46","properties":{"class_id":2,"hotspot_score":0.9421487603305785,"lat":27.803352116905458,"lng":84.89847494497401,"name":"Vegetation Loss","severity":"low"}},{"type":"Feature","geometry":{"geodesic":false,"type":"Point","coordinates":[84.44572404177777,27.7615804561939]},"id":"47","properties":{"class_id":2,"hotspot_score":0.5454545454545454,"lat":27.7615804561939,"lng":84.44572404177777,"name":"Vegetation Loss","severity":"low"}},{"type":"Feature","geometry":{"geodesic":false,"type":"Point","coordinates":[84.8871561723941,27.802813127734986]},"id":"48","properties":{"class_id":2,"hotspot_score":0.8181818181818182,"lat":27.802813127734986,"lng":84.8871561723941,"name":"Vegetation Loss","severity":"low"}},{"type":"Feature","geometry":{"geodesic":false,"type":"Point","coordinates":[84.89524100995118,27.813592911144422]},"id":"49","properties":{"class_id":2,"hotspot_score":0.5619834710743802,"lat":27.813592911144422,"lng":84.89524100995118,"name":"Vegetation Loss","severity":"low"}},{"type":"Feature","geometry":{"geodesic":false,"type":"Point","coordinates":[84.92272945764523,27.79230283891079]},"id":"50","properties":{"class_id":2,"hotspot_score":0.9917355371900827,"lat":27.79230283891079,"lng":84.92272945764523,"name":"Vegetation Loss","severity":"low"}},{"type":"Feature","geometry":{"geodesic":false,"type":"Point","coordinates":[84.45650382518721,27.76238893994961]},"id":"51","properties":{"class_id":2,"hotspot_score":0.4793388429752066,"lat":27.76238893994961,"lng":84.45650382518721,"name":"Vegetation Loss","severity":"low"}},{"type":"Feature","geometry":{"geodesic":false,"type":"Point","coordinates":[85.13050978286208,27.873151214481545]},"id":"52","properties":{"class_id":2,"hotspot_score":1.0,"lat":27.873151214481545,"lng":85.13050978286208,"name":"Vegetation Loss","severity":"low"}},{"type":"Feature","geometry":{"geodesic":false,"type":"Point","coordinates":[85.13482169622586,27.873151214481545]},"id":"53","properties":{"class_id":2,"hotspot_score":0.8099173553719008,"lat":27.873151214481545,"lng":85.13482169622586,"name":"Vegetation Loss","severity":"low"}},{"type":"Feature","geometry":{"geodesic":false,"type":"Point","coordinates":[85.0396901076376,27.84808821805461]},"id":"54","properties":{"class_id":2,"hotspot_score":1.0,"lat":27.84808821805461,"lng":85.0396901076376,"name":"Vegetation Loss","severity":"low"}},{"type":"Feature","geometry":{"geodesic":false,"type":"Point","coordinates":[84.91653108218482,27.80981998695112]},"id":"55","properties":{"class_id":2,"hotspot_score":1.0,"lat":27.80981998695112,"lng":84.91653108218482,"name":"Vegetation Loss","severity":"low"}},{"type":"Feature","geometry":{"geodesic":false,"type":"Point","coordinates":[85.11083667813986,27.875037676578195]},"id":"56","properties":{"class_id":2,"hotspot_score":0.9917355371900827,"lat":27.875037676578195,"lng":85.11083667813986,"name":"Vegetation Loss","severity":"low"}},{"type":"Feature","geometry":{"geodesic":false,"type":"Point","coordinates":[84.45326989016438,27.76346691829055]},"id":"57","properties":{"class_id":2,"hotspot_score":0.5454545454545454,"lat":27.76346691829055,"lng":84.45326989016438,"name":"Vegetation Loss","severity":"low"}},{"type":"Feature","geometry":{"geodesic":false,"type":"Point","coordinates":[84.90197837458207,27.814401394900127]},"id":"58","properties":{"class_id":2,"hotspot_score":1.0,"lat":27.814401394900127,"lng":84.90197837458207,"name":"Vegetation Loss","severity":"low"}},{"type":"Feature","geometry":{"geodesic":false,"type":"Point","coordinates":[84.8968579774626,27.810089481536355]},"id":"59","properties":{"class_id":2,"hotspot_score":0.9586776859504132,"lat":27.810089481536355,"lng":84.8968579774626,"name":"Vegetation Loss","severity":"low"}},{"type":"Feature","geometry":{"geodesic":false,"type":"Point","coordinates":[85.37062945830723,28.260145438880237]},"id":"60","properties":{"class_id":3,"hotspot_score":0.6528925619834711,"lat":28.260145438880237,"lng":85.37062945830723,"name":"Built-up Alteration","severity":"low"}},{"type":"Feature","geometry":{"geodesic":false,"type":"Point","coordinates":[85.41374859194497,28.312157893830754]},"id":"61","properties":{"class_id":3,"hotspot_score":0.859504132231405,"lat":28.312157893830754,"lng":85.41374859194497,"name":"Built-up Alteration","severity":"low"}},{"type":"Feature","geometry":{"geodesic":false,"type":"Point","coordinates":[85.44662693134374,28.3380293740134]},"id":"62","properties":{"class_id":3,"hotspot_score":0.4462809917355372,"lat":28.3380293740134,"lng":85.44662693134374,"name":"Built-up Alteration","severity":"low"}},{"type":"Feature","geometry":{"geodesic":false,"type":"Point","coordinates":[85.36631754494346,28.249904644641273]},"id":"63","properties":{"class_id":3,"hotspot_score":0.6033057851239669,"lat":28.249904644641273,"lng":85.36631754494346,"name":"Built-up Alteration","severity":"low"}},{"type":"Feature","geometry":{"geodesic":false,"type":"Point","coordinates":[85.45174732846323,28.336681901087218]},"id":"64","properties":{"class_id":3,"hotspot_score":0.9008264462809917,"lat":28.336681901087218,"lng":85.45174732846323,"name":"Built-up Alteration","severity":"low"}},{"type":"Feature","geometry":{"geodesic":false,"type":"Point","coordinates":[85.41806050530874,28.328327568944907]},"id":"65","properties":{"class_id":3,"hotspot_score":0.6446280991735538,"lat":28.328327568944907,"lng":85.41806050530874,"name":"Built-up Alteration","severity":"low"}},{"type":"Feature","geometry":{"geodesic":false,"type":"Point","coordinates":[85.4140180865302,28.315391828853585]},"id":"66","properties":{"class_id":3,"hotspot_score":0.768595041322314,"lat":28.315391828853585,"lng":85.4140180865302,"name":"Built-up Alteration","severity":"low"}},{"type":"Feature","geometry":{"geodesic":false,"type":"Point","coordinates":[85.37844480127907,28.276854103164858]},"id":"67","properties":{"class_id":3,"hotspot_score":0.578512396694215,"lat":28.276854103164858,"lng":85.37844480127907,"name":"Built-up Alteration","severity":"low"}},{"type":"Feature","geometry":{"geodesic":false,"type":"Point","coordinates":[84.97096898840246,27.811975943633005]},"id":"68","properties":{"class_id":3,"hotspot_score":0.12396694214876033,"lat":27.811975943633005,"lng":84.97096898840246,"name":"Built-up Alteration","severity":"low"}},{"type":"Feature","geometry":{"geodesic":false,"type":"Point","coordinates":[85.19249353746633,28.029727568503578]},"id":"69","properties":{"class_id":3,"hotspot_score":0.4793388429752066,"lat":28.029727568503578,"lng":85.19249353746633,"name":"Built-up Alteration","severity":"low"}},{"type":"Feature","geometry":{"geodesic":false,"type":"Point","coordinates":[85.42102494574634,28.330214031041557]},"id":"70","properties":{"class_id":3,"hotspot_score":0.6528925619834711,"lat":28.330214031041557,"lng":85.42102494574634,"name":"Built-up Alteration","severity":"low"}},{"type":"Feature","geometry":{"geodesic":false,"type":"Point","coordinates":[85.33424768930038,28.15908496941679]},"id":"71","properties":{"class_id":3,"hotspot_score":0.5867768595041323,"lat":28.15908496941679,"lng":85.33424768930038,"name":"Built-up Alteration","severity":"low"}},{"type":"Feature","geometry":{"geodesic":false,"type":"Point","coordinates":[85.34206303227224,28.16878677448528]},"id":"72","properties":{"class_id":3,"hotspot_score":0.5289256198347108,"lat":28.16878677448528,"lng":85.34206303227224,"name":"Built-up Alteration","severity":"low"}},{"type":"Feature","geometry":{"geodesic":false,"type":"Point","coordinates":[85.43207422374101,28.333717460649623]},"id":"73","properties":{"class_id":3,"hotspot_score":0.7603305785123967,"lat":28.333717460649623,"lng":85.43207422374101,"name":"Built-up Alteration","severity":"low"}},{"type":"Feature","geometry":{"geodesic":false,"type":"Point","coordinates":[85.41428758111545,28.311618904660282]},"id":"74","properties":{"class_id":3,"hotspot_score":0.5619834710743802,"lat":28.311618904660282,"lng":85.41428758111545,"name":"Built-up Alteration","severity":"low"}},{"type":"Feature","geometry":{"geodesic":false,"type":"Point","coordinates":[85.39084155219992,28.28736439198906]},"id":"75","properties":{"class_id":3,"hotspot_score":0.8016528925619835,"lat":28.28736439198906,"lng":85.39084155219992,"name":"Built-up Alteration","severity":"low"}},{"type":"Feature","geometry":{"geodesic":false,"type":"Point","coordinates":[85.41105364609261,28.30730699129651]},"id":"76","properties":{"class_id":3,"hotspot_score":0.71900826446281,"lat":28.30730699129651,"lng":85.41105364609261,"name":"Built-up Alteration","severity":"low"}},{"type":"Feature","geometry":{"geodesic":false,"type":"Point","coordinates":[85.3501478698293,28.196544716764574]},"id":"77","properties":{"class_id":3,"hotspot_score":0.5206611570247934,"lat":28.196544716764574,"lng":85.3501478698293,"name":"Built-up Alteration","severity":"low"}},{"type":"Feature","geometry":{"geodesic":false,"type":"Point","coordinates":[85.38113974713143,28.28197450028434]},"id":"78","properties":{"class_id":3,"hotspot_score":0.7107438016528926,"lat":28.28197450028434,"lng":85.38113974713143,"name":"Built-up Alteration","severity":"low"}},{"type":"Feature","geometry":{"geodesic":false,"type":"Point","coordinates":[84.64461104568183,27.861293452731168]},"id":"79","properties":{"class_id":3,"hotspot_score":0.2066115702479339,"lat":27.861293452731168,"lng":84.64461104568183,"name":"Built-up Alteration","severity":"low"}},{"type":"Feature","geometry":{"geodesic":false,"type":"Point","coordinates":[85.43180472915577,28.33210049313821]},"id":"80","properties":{"class_id":3,"hotspot_score":0.975206611570248,"lat":28.33210049313821,"lng":85.43180472915577,"name":"Built-up Alteration","severity":"low"}},{"type":"Feature","geometry":{"geodesic":false,"type":"Point","coordinates":[85.38383469298378,28.28332197321052]},"id":"81","properties":{"class_id":3,"hotspot_score":0.7024793388429752,"lat":28.28332197321052,"lng":85.38383469298378,"name":"Built-up Alteration","severity":"low"}},{"type":"Feature","geometry":{"geodesic":false,"type":"Point","coordinates":[85.41509606487115,28.314313850512644]},"id":"82","properties":{"class_id":3,"hotspot_score":0.5454545454545454,"lat":28.314313850512644,"lng":85.41509606487115,"name":"Built-up Alteration","severity":"low"}},{"type":"Feature","geometry":{"geodesic":false,"type":"Point","coordinates":[85.37601935001194,28.26580482517019]},"id":"83","properties":{"class_id":3,"hotspot_score":0.7933884297520661,"lat":28.26580482517019,"lng":85.37601935001194,"name":"Built-up Alteration","severity":"low"}},{"type":"Feature","geometry":{"geodesic":false,"type":"Point","coordinates":[85.34287151602794,28.17148172033764]},"id":"84","properties":{"class_id":3,"hotspot_score":0.4545454545454546,"lat":28.17148172033764,"lng":85.34287151602794,"name":"Built-up Alteration","severity":"low"}},{"type":"Feature","geometry":{"geodesic":false,"type":"Point","coordinates":[85.41105364609261,28.307037496711274]},"id":"85","properties":{"class_id":3,"hotspot_score":0.6694214876033058,"lat":28.307037496711274,"lng":85.41105364609261,"name":"Built-up Alteration","severity":"low"}},{"type":"Feature","geometry":{"geodesic":false,"type":"Point","coordinates":[85.33128324886279,28.15639002356443]},"id":"86","properties":{"class_id":3,"hotspot_score":0.4628099173553719,"lat":28.15639002356443,"lng":85.33128324886279,"name":"Built-up Alteration","severity":"low"}},{"type":"Feature","geometry":{"geodesic":false,"type":"Point","coordinates":[85.07175996328067,27.855095077270743]},"id":"87","properties":{"class_id":3,"hotspot_score":0.4545454545454546,"lat":27.855095077270743,"lng":85.07175996328067,"name":"Built-up Alteration","severity":"low"}},{"type":"Feature","geometry":{"geodesic":false,"type":"Point","coordinates":[85.35796321280115,28.243167280010375]},"id":"88","properties":{"class_id":3,"hotspot_score":0.11570247933884298,"lat":28.243167280010375,"lng":85.35796321280115,"name":"Built-up Alteration","severity":"low"}},{"type":"Feature","geometry":{"geodesic":false,"type":"Point","coordinates":[85.42641483745105,28.32805807435967]},"id":"89","properties":{"class_id":3,"hotspot_score":0.5041322314049587,"lat":28.32805807435967,"lng":85.42641483745105,"name":"Built-up Alteration","severity":"low"}}]}